GOES 6 [-]              
1 14050U 83041A   22338.42540755 -.00000260  00000+0  00000+0 0  9993
2 14050  12.2495 330.5776 0003263 169.2228  10.3692  1.00256378203075
GOES 7 [-]              
1 17561U 87022A   22338.18352427  .00000032  00000+0  00000+0 0  9992
2 17561  14.0979 347.1698 0003730  63.0163 107.3482  0.99903487114068
GOES 8 [-]              
1 23051U 94022A   22338.15728762  .00000029  00000+0  00000+0 0  9993
2 23051  13.3215  22.9937 0003483  31.7287 321.7540  0.98903099111356
GOES 9 [-]              
1 23581U 95025A   22338.84214271 -.00000002  00000+0  00000+0 0  9998
2 23581  12.8171  23.3786 0005556 127.6172 310.4620  0.98797591100010
GOES 10 [-]             
1 24786U 97019A   22338.02822125 -.00000252  00000+0  00000+0 0  9991
2 24786  11.6125  29.6267 0028196 205.0470 167.8545  0.99125587 93274
GOES 11 [-]             
1 26352U 00022A   22338.85911715 -.00000266  00000+0  00000+0 0  9990
2 26352   9.0447  57.9543 0002677 192.2817 265.2397  0.99044350 39694
GOES 12 [-]             
1 26871U 01031A   22338.84880150 -.00000126  00000+0  00000+0 0  9999
2 26871   9.8234  47.0558 0004201 302.9377 132.9574  0.99135418 77970
EWS-G1 (GOES 13) [+]    
1 29155U 06018A   22338.83763417  .00000048  00000+0  00000+0 0  9994
2 29155   1.0100  93.6899 0006799 147.3484 195.4745  1.00273498 30431
GOES 14 [B]             
1 35491U 09033A   22338.65418215 -.00000084  00000+0  00000+0 0  9998
2 35491   0.1864 261.5354 0018207 322.4015 340.8235  1.00271467 49213
GOES 15 [B]             
1 36411U 10008A   22338.72814336  .00000062  00000+0  00000+0 0  9992
2 36411   0.1437 282.9767 0003178 284.1518   0.6812  1.00280533 46729
GOES 16 [+]             
1 41866U 16071A   22338.81043870 -.00000238  00000+0  00000+0 0  9991
2 41866   0.0577 256.1918 0000793  20.9378  13.0408  1.00271123 22171
GOES 17 [+]             
1 43226U 18022A   22338.65456375  .00000107  00000+0  00000+0 0  9995
2 43226   0.0420 126.4512 0000636 140.4825 264.8463  1.00273775 17491
GOES 18 [+]             
1 51850U 22021A   22336.79858193  .00000101  00000+0  00000+0 0  9992
2 51850   0.0254 142.9864 0001839 104.3997 334.7920  1.00271308  2822
GORIZONT 1 [-]          
1 11158U 78118A   22338.03837336 -.00000094  00000+0  00000+0 0  9994
2 11158  11.0789 198.6573 3437741 290.5301  36.4091  1.00306370109993
GORIZONT 2 [-]          
1 11440U 79062A   22338.78443639 -.00000015  00000+0  00000+0 0  9991
2 11440   8.8905 299.8821 0003762 296.3471 186.4462  1.00301328125064
GORIZONT 3 [-]          
1 11648U 79105A   22338.53936910 -.00000186  00000+0  00000+0 0  9990
2 11648   9.0532 301.3432 0013139 219.5529 190.0053  1.00345624109549
GORIZONT 4 [-]          
1 11841U 80049A   22338.11091029 -.00000005  00000+0  00000+0 0  9991
2 11841  10.2119 307.2232 0001109 310.4109 259.3438  0.98628705220787
GORIZONT 5 [-]          
1 13092U 82020A   22339.05205995  .00000020  00000+0  00000+0 0  9991
2 13092  11.2140 312.5380 0033952 216.1378 341.9754  0.98530419108863
GORIZONT 6 [-]          
1 13624U 82103A   22338.66239426  .00000118  00000+0  00000+0 0  9994
2 13624  10.1407 312.5996 0001401 249.6637 307.8800  1.00320133107994
GORIZONT 7 [-]          
1 14160U 83066A   22338.81523278 -.00000148  00000+0  00000+0 0  9991
2 14160  11.8224 322.0344 0009792 318.6908  35.2223  0.98348503142051
GORIZONT 8 [-]          
1 14532U 83118A   22338.31175499 -.00000216  00000+0  00000+0 0  9991
2 14532  12.0025 323.9063 0029874 152.8656 236.7923  0.98271872107820
GORIZONT 9 [-]          
1 14940U 84041A   22338.83689897 -.00000032  00000+0  00000+0 0  9995
2 14940  11.1912 321.9147 0004615 217.4674 264.0697  1.00224525109004
GORIZONT 10 [-]         
1 15144U 84078A   22338.57253661  .00000088  00000+0  00000+0 0  9999
2 15144  11.2902 322.9433 0000387 175.0221 333.0116  1.00250678141635
GORIZONT 11 [-]         
1 15484U 85007A   22338.85679572 -.00000376  00000+0  00000+0 0  9994
2 15484  11.4758 324.9312 0003056 160.3671  18.2818  1.00348020139696
GORIZONT 12 [-]         
1 16769U 86044A   22338.14702095  .00000111  00000+0  00000+0 0  9998
2 16769  12.1130 330.3338 0001723 242.6560 319.3253  1.00229908134319
GORIZONT 13 [-]         
1 17083U 86090A   22338.85698052 -.00000136  00000+0  00000+0 0  9992
2 17083  14.0078 337.5421 0013491 339.9592 187.8093  0.96726448106160
GORIZONT 14 [-]         
1 17969U 87040A   22338.21778010 -.00000148  00000+0  00000+0 0  9997
2 17969  12.9253 328.9085 0031231 177.6198 196.1223  0.97659722107256
GORIZONT 15 [-]         
1 19017U 88028A   22338.18465743 -.00000127  00000+0  00000+0 0  9999
2 19017  14.3079 340.3515 0036979 160.4364  23.3868  0.97828676106878
GORIZONT 16 [-]         
1 19397U 88071A   22338.78838597 -.00000062  00000+0  00000+0 0  9993
2 19397  13.1575 339.0239 0013392  64.3184 128.8642  0.99989079125331
GORIZONT 17 [-]         
1 19765U 89004A   22338.84185030  .00000023  00000+0  00000+0 0  9999
2 19765  13.7149 342.3852 0022825 136.2663 335.6572  0.99063147122799
GORIZONT 18 [-]         
1 20107U 89052A   22338.65430226  .00000070  00000+0  00000+0 0  9995
2 20107  13.7637 343.6424 0033784 320.1472 227.3018  0.99399578121577
GORIZONT 19 [-]         
1 20263U 89081A   22339.05659253 -.00000182  00000+0  00000+0 0  9993
2 20263  13.4915 342.8154 0004020 212.2345 340.0580  1.00354808121553
GORIZONT 20 [-]         
1 20659U 90054A   22338.98694774 -.00000244  00000+0  00000+0 0  9991
2 20659  13.9375 345.6328 0006833 170.5014   3.3918  1.00237197118746
GORIZONT 21 [-]         
1 20923U 90094A   22338.38409083 -.00000305  00000+0  00000+0 0  9998
2 20923  13.9546 346.4064 0004990 206.4077 323.6688  1.00352597117503
GORIZONT 22 [-]         
1 20953U 90102A   22338.85271372 -.00000322  00000+0  00000+0 0  9990
2 20953  13.9140 346.7725 0002386  26.5583 144.0912  1.00242862117466
GORIZONT 23 [-]         
1 21533U 91046A   22338.22065653 -.00000052  00000+0  00000+0 0  9997
2 21533  14.6916 350.9429 0003714 307.0497  59.9967  0.98909140 33922
GORIZONT 24 [-]         
1 21759U 91074A   22338.85367517 -.00000141  00000+0  00000+0 0  9990
2 21759  14.8533 352.8525 0018128 226.9503 277.1016  0.98443394112256
GORIZONT 25 [-]         
1 21922U 92017A   22338.15266788  .00000082  00000+0  00000+0 0  9994
2 21922  14.3941 352.1723 0028520  85.1811 274.8572  0.99847165112046
GORIZONT 26 [-]         
1 22041U 92043A   22338.15319087  .00000056  00000+0  00000+0 0  9998
2 22041  14.5726 354.1886 0031397 237.2803 122.9889  0.99241800110665
GORIZONT 27 [-]         
1 22245U 92082A   22338.19494108  .00000119  00000+0  00000+0 0  9999
2 22245  14.4886 353.7631 0011481  11.1914 172.0111  1.00168051114188
GORIZONT 28 [-]         
1 22880U 93069A   22338.75404299 -.00000121  00000+0  00000+0 0  9998
2 22880  14.6441 357.6322 0034209 135.7368 213.6907  0.99657639106268
GORIZONT 29 [-]         
1 22907U 93072A   22338.38714161 -.00000288  00000+0  00000+0 0  9997
2 22907  14.5538 357.0850 0009427 345.5292 190.3657  1.00150935106246
GORIZONT 30 [-]         
1 23108U 94030A   22338.81263271 -.00000283  00000+0  00000+0 0  9990
2 23108  14.5697 357.9823 0001927 186.5833 324.3891  1.00253439104527
GORIZONT 31 [-]         
1 23775U 96005A   22338.85090809 -.00000317  00000+0  00000+0 0  9991
2 23775  14.5075   4.2190 0018843 203.0602 282.3102  0.99888170 98163
GORIZONT 32 [-]         
1 23880U 96034A   22338.79021644  .00000034  00000+0  00000+0 0  9999
2 23880  14.4593   4.7309 0007991 358.0095 178.8902  1.00205219 97111
GORIZONT 33 [-]         
1 26372U 00029A   22338.39088971 -.00000177  00000+0  00000+0 0  9998
2 26372  13.2179  15.9803 0002656 107.0502  70.1600  1.00297045 82489
GPS BIIR-2  (PRN 13)    
1 24876U 97035A   22338.37826227  .00000091  00000+0  00000+0 0  9994
2 24876  55.5358 149.0422 0065204  53.3567 307.2601  2.00563638186061
GPS BIIR-4  (PRN 20)    
1 26360U 00025A   22338.25819858 -.00000081  00000+0  00000+0 0  9996
2 26360  54.1999  71.8633 0047391 190.4092 174.2169  2.00560490165382
GPS BIIR-6  (PRN 22)    
1 26605U 00071A   22338.32365903  .00000086  00000+0  00000+0 0  9998
2 26605  55.1229 145.9647 0138010 254.6323 280.4242  2.00553138161624
GPS BIIR-8  (PRN 16)    
1 27663U 03005A   22338.51853387 -.00000056  00000+0  00000+0 0  9990
2 27663  55.4029 266.3049 0129536  41.7805 126.3699  2.00554549145428
GPS BIIR-9  (PRN 21)    
1 27704U 03010A   22338.50852340 -.00000097  00000+0  00000+0 0  9994
2 27704  55.0744  16.4289 0247926 310.3809  67.1924  2.00563572144223
GPS BIIR-11 (PRN 19)    
1 28190U 04009A   22338.81161753 -.00000083  00000+0  00000+0 0  9993
2 28190  55.8953 327.3122 0088242 128.1524  46.0815  2.00556395137060
GPS BIIR-13 (PRN 02)    
1 28474U 04045A   22338.50634218 -.00000097  00000+0  00000+0 0  9990
2 28474  55.3994  16.6351 0202754 282.1985 244.0661  2.00561470132542
GPS BIIRM-1 (PRN 17)    
1 28874U 05038A   22338.53126791 -.00000081  00000+0  00000+0 0  9995
2 28874  55.9552 324.7640 0140828 276.7925  84.5169  2.00564403125958
GPS BIIRM-2 (PRN 31)    
1 29486U 06042A   22338.42376337  .00000072  00000+0  00000+0 0  9991
2 29486  54.6980 202.5216 0106403  26.0366 172.3490  2.00569220118505
GPS BIIRM-3 (PRN 12)    
1 29601U 06052A   22338.59725128 -.00000054  00000+0  00000+0 0  9996
2 29601  55.4147 265.2472 0084686  75.1782 285.7666  2.00560303117521
GPS BIIRM-4 (PRN 15)    
1 32260U 07047A   22338.40143295  .00000058  00000+0  00000+0 0  9998
2 32260  53.3655 133.4982 0145384  66.3693 295.1418  2.00566041110927
GPS BIIRM-5 (PRN 29)    
1 32384U 07062A   22338.42685795 -.00000080  00000+0  00000+0 0  9996
2 32384  56.0794 325.5519 0019705 146.8141 359.1571  2.00571057109626
GPS BIIRM-6 (PRN 07)    
1 32711U 08012A   22337.81911122  .00000068  00000+0  00000+0 0  9999
2 32711  54.4609 201.4419 0166570 232.3790 126.1824  2.00570084107857
